[{"OBJECT_NAME":"COSMOS 1408 DEB","OBJECT_ID":"1982-092RU","EPOCH":"2026-04-26T22:46:31.345824","MEAN_MOTION":15.47250764,"ECCENTRICITY":0.0016929,"INCLINATION":82.5602,"RA_OF_ASC_NODE":279.7458,"ARG_OF_PERICENTER":82.9647,"MEAN_ANOMALY":277.3527,"EPHEMERIS_TYPE":0,"CLASSIFICATION_TYPE":"U","NORAD_CAT_ID":50032,"ELEMENT_SET_NO":999,"REV_AT_EPOCH":24693,"BSTAR":0.00010709,"MEAN_MOTION_DOT":5.523e-5,"MEAN_MOTION_DDOT":0},{"OBJECT_NAME":"COSMOS 1408 DEB","OBJECT_ID":"1982-092SW","EPOCH":"2026-04-26T23:07:49.060992","MEAN_MOTION":15.75832113,"ECCENTRICITY":0.00105887,"INCLINATION":82.6059,"RA_OF_ASC_NODE":286.6019,"ARG_OF_PERICENTER":308.8308,"MEAN_ANOMALY":51.2011,"EPHEMERIS_TYPE":0,"CLASSIFICATION_TYPE":"U","NORAD_CAT_ID":50058,"ELEMENT_SET_NO":999,"REV_AT_EPOCH":24925,"BSTAR":0.00034147747,"MEAN_MOTION_DOT":0.00052905,"MEAN_MOTION_DDOT":0},{"OBJECT_NAME":"COSMOS 1408 DEB","OBJECT_ID":"1982-092ADS","EPOCH":"2026-04-27T06:55:42.003840","MEAN_MOTION":15.52431468,"ECCENTRICITY":0.00905836,"INCLINATION":82.1857,"RA_OF_ASC_NODE":72.6337,"ARG_OF_PERICENTER":86.1601,"MEAN_ANOMALY":275.0001,"EPHEMERIS_TYPE":0,"CLASSIFICATION_TYPE":"U","NORAD_CAT_ID":50404,"ELEMENT_SET_NO":999,"REV_AT_EPOCH":23266,"BSTAR":0.0057393967,"MEAN_MOTION_DOT":0.00436541,"MEAN_MOTION_DDOT":0},{"OBJECT_NAME":"COSMOS 1408 DEB","OBJECT_ID":"1982-092ALR","EPOCH":"2026-04-26T11:38:23.442720","MEAN_MOTION":15.65653615,"ECCENTRICITY":0.00223576,"INCLINATION":82.5645,"RA_OF_ASC_NODE":292.9498,"ARG_OF_PERICENTER":13.6838,"MEAN_ANOMALY":346.5023,"EPHEMERIS_TYPE":0,"CLASSIFICATION_TYPE":"U","NORAD_CAT_ID":50621,"ELEMENT_SET_NO":999,"REV_AT_EPOCH":24352,"BSTAR":0.00037429122,"MEAN_MOTION_DOT":0.00038299,"MEAN_MOTION_DDOT":0}]
