COSMOS 1408 DEB         
1 50032U 82092RU  26116.94897391  .00005523  00000+0  10709-3 0  9991
2 50032  82.5602 279.7458 0016929  82.9647 277.3527 15.47250764246938
COSMOS 1408 DEB         
1 50058U 82092SW  26116.96376228  .00052905  00000+0  34148-3 0  9991
2 50058  82.6059 286.6019 0010588 308.8308  51.2011 15.75832113249252
COSMOS 1408 DEB         
1 50404U 82092ADS 26117.28868060  .00436541  00000+0  57394-2 0  9991
2 50404  82.1857  72.6337 0090583  86.1601 275.0001 15.52431468232664
COSMOS 1408 DEB         
1 50621U 82092ALR 26116.48499355  .00038299  00000+0  37429-3 0  9996
2 50621  82.5645 292.9498 0022357  13.6838 346.5023 15.65653615243529
